CTC2_L_00386016-03
1 65582U 25782ZI  26070.40847222  .00000000  00000+0  00000-0 0  9993
2 65582  65.0000 180.0000 0000000   0.0000   0.0000 12.90384021    19
CTC2_L_00386016-04
1 65583U 22227OK  26070.40847222  .00000000  00000+0  00000-0 0  9995
2 65583  65.0000 180.0000 0000000   0.0000  90.0000 12.90384021    19
CTC2_L_00386017-01
1 65584U 23176PN  26070.40847222  .00000000  00000+0  00000-0 0  9990
2 65584  65.0000 192.0000 0000000   0.0000 192.0000 12.90384021    16
CTC2_L_00386017-02
1 65585U 23929SQ  26070.40847222  .00000000  00000+0  00000-0 0  9997
2 65585  65.0000 192.0000 0000000   0.0000 282.0000 12.90384021    17
CTC2_L_00386017-03
1 65586U 24638HJ  26070.40847222  .00000000  00000+0  00000-0 0  9996
2 65586  65.0000 192.0000 0000000   0.0000  12.0000 12.90384021    19
CTC2_L_00386017-04
1 65587U 25024HF  26070.40847222  .00000000  00000+0  00000-0 0  9997
2 65587  65.0000 192.0000 0000000   0.0000 102.0000 12.90384021    10
CTC2_L_00386018-01
1 65588U 26105ZA  26070.40847222  .00000000  00000+0  00000-0 0  9999
2 65588  65.0000 204.0000 0000000   0.0000 204.0000 12.90384021    18
CTC2_L_00386018-02
1 65589U 26350OB  26070.40847222  .00000000  00000+0  00000-0 0  9992
2 65589  65.0000 204.0000 0000000   0.0000 294.0000 12.90384021    18
CTC2_L_00386018-03
1 65590U 24633FU  26070.40847222  .00000000  00000+0  00000-0 0  9996
2 65590  65.0000 204.0000 0000000   0.0000  24.0000 12.90384021    11
CTC2_L_00386018-04
1 65591U 24952OI  26070.40847222  .00000000  00000+0  00000-0 0  9991
2 65591  65.0000 204.0000 0000000   0.0000 114.0000 12.90384021    12
CTC2_L_00386019-01
1 65592U 22929JN  26070.40847222  .00000000  00000+0  00000-0 0  9994
2 65592  65.0000 216.0000 0000000   0.0000 216.0000 12.90384021    19
CTC2_L_00386019-02
1 65593U 24805KR  26070.40847222  .00000000  00000+0  00000-0 0  9990
2 65593  65.0000 216.0000 0000000   0.0000 306.0000 12.90384021    10
CTC2_L_00386019-03
1 65594U 22486GI  26070.40847222  .00000000  00000+0  00000-0 0  9994
2 65594  65.0000 216.0000 0000000   0.0000  36.0000 12.90384021    11
CTC2_L_00386019-04
1 65595U 23370EN  26070.40847222  .00000000  00000+0  00000-0 0  9998
2 65595  65.0000 216.0000 0000000   0.0000 126.0000 12.90384021    12
CTC2_L_00386020-01
1 65596U 23231IK  26070.40847222  .00000000  00000+0  00000-0 0  9995
2 65596  65.0000 228.0000 0000000   0.0000 228.0000 12.90384021    19
CTC2_L_00386020-02
1 65597U 26149RM  26070.40847222  .00000000  00000+0  00000-0 0  9997
2 65597  65.0000 228.0000 0000000   0.0000 318.0000 12.90384021    10
CTC2_L_00386020-03
1 65598U 25988PU  26070.40847222  .00000000  00000+0  00000-0 0  9998
2 65598  65.0000 228.0000 0000000   0.0000  48.0000 12.90384021    11
CTC2_L_00386020-04
1 65599U 25458OK  26070.40847222  .00000000  00000+0  00000-0 0  9991
2 65599  65.0000 228.0000 0000000   0.0000 138.0000 12.90384021    12
CTC2_L_00386021-01
1 65600U 24105GT  26070.40847222  .00000000  00000+0  00000-0 0  9992
2 65600  65.0000 240.0000 0000000   0.0000 240.0000 12.90384021    13
CTC2_L_00386021-02
1 65601U 22374CZ  26070.40847222  .00000000  00000+0  00000-0 0  9999
2 65601  65.0000 240.0000 0000000   0.0000 330.0000 12.90384021    14
CTC2_L_00386021-03
1 65602U 23662VK  26070.40847222  .00000000  00000+0  00000-0 0  9991
2 65602  65.0000 240.0000 0000000   0.0000  60.0000 12.90384021    15
CTC2_L_00386021-04
1 65603U 22081ON  26070.40847222  .00000000  00000+0  00000-0 0  9996
2 65603  65.0000 240.0000 0000000   0.0000 150.0000 12.90384021    16
CTC2_L_00386022-01
1 65604U 24316DC  26070.40847222  .00000000  00000+0  00000-0 0  9990
2 65604  65.0000 252.0000 0000000   0.0000 252.0000 12.90384021    13
CTC2_L_00386022-02
1 65605U 22856XJ  26070.40847222  .00000000  00000+0  00000-0 0  9998
2 65605  65.0000 252.0000 0000000   0.0000 342.0000 12.90384021    14
CTC2_L_00386022-03
1 65606U 23689UG  26070.40847222  .00000000  00000+0  00000-0 0  9994
2 65606  65.0000 252.0000 0000000   0.0000  72.0000 12.90384021    15
CTC2_L_00386022-04
1 65607U 26840JL  26070.40847222  .00000000  00000+0  00000-0 0  9997
2 65607  65.0000 252.0000 0000000   0.0000 162.0000 12.90384021    16
CTC2_L_00386023-01
1 65608U 25462PI  26070.40847222  .00000000  00000+0  00000-0 0  9997
2 65608  65.0000 264.0000 0000000   0.0000 264.0000 12.90384021    13
CTC2_L_00386023-02
1 65609U 25575CU  26070.40847222  .00000000  00000+0  00000-0 0  9993
2 65609  65.0000 264.0000 0000000   0.0000 354.0000 12.90384021    14
CTC2_L_00386023-03
1 65610U 25009CA  26070.40847222  .00000000  00000+0  00000-0 0  9997
2 65610  65.0000 264.0000 0000000   0.0000  84.0000 12.90384021    16
CTC2_L_00386023-04
1 65611U 22301ML  26070.40847222  .00000000  00000+0  00000-0 0  9990
2 65611  65.0000 264.0000 0000000   0.0000 174.0000 12.90384021    17
CTC2_L_00386024-01
1 65612U 23257VK  26070.40847222  .00000000  00000+0  00000-0 0  9992
2 65612  65.0000 276.0000 0000000   0.0000 276.0000 12.90384021    14
CTC2_L_00386024-02
1 65613U 22910YQ  26070.40847222  .00000000  00000+0  00000-0 0  9998
2 65613  65.0000 276.0000 0000000   0.0000   6.0000 12.90384021    16
CTC2_L_00386024-03
1 65614U 23383IN  26070.40847222  .00000000  00000+0  00000-0 0  9994
2 65614  65.0000 276.0000 0000000   0.0000  96.0000 12.90384021    16
CTC2_L_00386024-04
1 65615U 25533KL  26070.40847222  .00000000  00000+0  00000-0 0  9994
2 65615  65.0000 276.0000 0000000   0.0000 186.0000 12.90384021    17
CTC2_L_00386025-01
1 65616U 22504QL  26070.40847222  .00000000  00000+0  00000-0 0  9990
2 65616  65.0000 288.0000 0000000   0.0000 288.0000 12.90384021    14
CTC2_L_00386025-02
1 65617U 22508TR  26070.40847222  .00000000  00000+0  00000-0 0  9995
2 65617  65.0000 288.0000 0000000   0.0000  18.0000 12.90384021    16
CTC2_L_00386025-03
1 65618U 23167IX  26070.40847222  .00000000  00000+0  00000-0 0  9998
2 65618  65.0000 288.0000 0000000   0.0000 108.0000 12.90384021    17
CTC2_L_00386025-04
1 65619U 25670LT  26070.40847222  .00000000  00000+0  00000-0 0  9990
2 65619  65.0000 288.0000 0000000   0.0000 198.0000 12.90384021    17
CTC2_L_00386026-01
1 65620U 26995FS  26070.40847222  .00000000  00000+0  00000-0 0  9993
2 65620  65.0000 300.0000 0000000   0.0000 300.0000 12.90384021    19
CTC2_L_00386026-02
1 65621U 26354KH  26070.40847222  .00000000  00000+0  00000-0 0  9993
2 65621  65.0000 300.0000 0000000   0.0000  30.0000 12.90384021    10
CTC2_L_00386026-03
1 65622U 25591DM  26070.40847222  .00000000  00000+0  00000-0 0  9996
2 65622  65.0000 300.0000 0000000   0.0000 120.0000 12.90384021    11
CTC2_L_00386026-04
1 65623U 23151EI  26070.40847222  .00000000  00000+0  00000-0 0  9997
2 65623  65.0000 300.0000 0000000   0.0000 210.0000 12.90384021    12
CTC2_L_00386027-01
1 65624U 26942ND  26070.40847222  .00000000  00000+0  00000-0 0  9999
2 65624  65.0000 312.0000 0000000   0.0000 312.0000 12.90384021    19
CTC2_L_00386027-02
1 65625U 24522VJ  26070.40847222  .00000000  00000+0  00000-0 0  9992
2 65625  65.0000 312.0000 0000000   0.0000  42.0000 12.90384021    10
CTC2_L_00386027-03
1 65626U 25373ER  26070.40847222  .00000000  00000+0  00000-0 0  9998
2 65626  65.0000 312.0000 0000000   0.0000 132.0000 12.90384021    11
CTC2_L_00386027-04
1 65627U 23132G   26070.40847222  .00000000  00000+0  00000-0 0  9990
2 65627  65.0000 312.0000 0000000   0.0000 222.0000 12.90384021    12
CTC2_L_00386028-01
1 65628U 22705CQ  26070.40847222  .00000000  00000+0  00000-0 0  9996
2 65628  65.0000 324.0000 0000000   0.0000 324.0000 12.90384021    19
CTC2_L_00386028-02
1 65629U 24076MF  26070.40847222  .00000000  00000+0  00000-0 0  9990
2 65629  65.0000 324.0000 0000000   0.0000  54.0000 12.90384021    10
CTC2_L_00386028-03
1 65630U 25611H   26070.40847222  .00000000  00000+0  00000-0 0  9998
2 65630  65.0000 324.0000 0000000   0.0000 144.0000 12.90384021    12
CTC2_L_00386028-04
1 65631U 23203HL  26070.40847222  .00000000  00000+0  00000-0 0  9994
2 65631  65.0000 324.0000 0000000   0.0000 234.0000 12.90384021    13
CTC2_L_00386029-01
1 65632U 23049WH  26070.40847222  .00000000  00000+0  00000-0 0  9993
2 65632  65.0000 336.0000 0000000   0.0000 336.0000 12.90384021    10
CTC2_L_00386029-02
1 65633U 24371AB  26070.40847222  .00000000  00000+0  00000-0 0  9993
2 65633  65.0000 336.0000 0000000   0.0000  66.0000 12.90384021    11
CTC2_L_00386029-03
1 65634U 24133HE  26070.40847222  .00000000  00000+0  00000-0 0  9990
2 65634  65.0000 336.0000 0000000   0.0000 156.0000 12.90384021    12
CTC2_L_00386029-04
1 65635U 23940C   26070.40847222  .00000000  00000+0  00000-0 0  9996
2 65635  65.0000 336.0000 0000000   0.0000 246.0000 12.90384021    13
CTC2_L_00386030-01
1 65636U 26694EH  26070.40847222  .00000000  00000+0  00000-0 0  9996
2 65636  65.0000 348.0000 0000000   0.0000 348.0000 12.90384021    10
CTC2_L_00386030-02
1 65637U 22388NG  26070.40847222  .00000000  00000+0  00000-0 0  9993
2 65637  65.0000 348.0000 0000000   0.0000  78.0000 12.90384021    11
CTC2_L_00386030-03
1 65638U 25751BO  26070.40847222  .00000000  00000+0  00000-0 0  9991
2 65638  65.0000 348.0000 0000000   0.0000 168.0000 12.90384021    12
CTC2_L_00386030-04
1 65639U 25652QB  26070.40847222  .00000000  00000+0  00000-0 0  9992
2 65639  65.0000 348.0000 0000000   0.0000 258.0000 12.90384021    13
